INTELSAT 902 (IS-902)   
1 26900U 01039A   26193.12523779 -.00000287  00000+0  00000+0 0  9993
2 26900   6.1779  71.4773 0004429  36.7964 176.7254  1.00270877 90948
INTELSAT 904 (IS-904)   
1 27380U 02007A   26192.98646514 -.00000229  00000+0  00000+0 0  9994
2 27380   6.9792  68.8833 0005390  23.6733 160.9889  1.00271421 52019
DIRECTV 5 (TEMPO 1)     
1 27426U 02023A   26193.18471839 -.00000060  00000+0  00000+0 0  9995
2 27426   4.9389  74.9974 0003019  42.3175 129.1525  1.00271053 88371
INTELSAT 905 (IS-905)   
1 27438U 02027A   26193.02004963  .00000090  00000+0  00000+0 0  9997
2 27438   6.8132  69.4968 0003456  44.4035  46.0292  1.00270872 51619
GALAXY 3C (G-3C)        
1 27445U 02030A   26193.22792196 -.00000154  00000+0  00000+0 0  9995
2 27445   3.7955  77.6500 0001498  37.5224 162.1737  1.00270728 46748
INTELSAT 906 (IS-906)   
1 27513U 02041A   26193.18219507  .00000009  00000+0  00000+0 0  9996
2 27513   5.8638  72.6133 0003911  21.1552 326.0360  1.00272531 87277
GALAXY 13 (HORIZONS-1)  
1 27954U 03044A   26193.10555602  .00000134  00000+0  00000+0 0  9999
2 27954   1.4817  83.5473 0002205  22.9442  71.5020  1.00269952 46821
INTELSAT 10-02          
1 28358U 04022A   26192.99250764 -.00000008  00000+0  00000+0 0  9993
2 28358   0.0519 255.9518 0000593 328.8445  61.3886  1.00270427 80800
DIRECTV 8               
1 28659U 05019A   26193.11166862  .00000004  00000+0  00000+0 0  9999
2 28659   0.0201  75.6431 0003028  50.2413  85.2707  1.00271091 77328
GALAXY 28 (G-28)        
1 28702U 05022A   26193.14466012 -.00000201  00000+0  00000+0 0  9995
2 28702   3.3609  78.6277 0002314  29.9876 206.3951  1.00270933 52222
GALAXY 16 (G-16)        
1 29236U 06023A   26193.22909458 -.00000124  00000+0  00000+0 0  9999
2 29236   0.0369 113.0101 0002445   8.0308 152.5559  1.00271234 73229
DIRECTV 9S              
1 29494U 06043A   26193.11169808 -.00000113  00000+0  00000+0 0  9990
2 29494   2.4824  80.6017 0004990  32.8009 115.6157  1.00270972 51635
GALAXY 17 (G-17)        
1 31307U 07016B   26193.22417080 -.00000207  00000+0  00000+0 0  9991
2 31307   3.0323  79.5853 0003550  33.3180 172.8914  1.00270557 70056
INTELSAT 11 (IS-11)     
1 32253U 07044B   26192.99597433 -.00000080  00000+0  00000+0 0  9996
2 32253   3.6272  78.3682 0004066 100.2600 126.4638  0.99051121 68693
HORIZONS-2              
1 32388U 07063B   26193.12059534 -.00000253  00000+0  00000+0 0  9999
2 32388   2.6637  80.3205 0003543  18.3079 161.0051  1.00270189 68063
DIRECTV 11              
1 32729U 08013A   26192.61657742 -.00000120  00000+0  00000+0 0  9995
2 32729   0.0131 264.0793 0000152 268.8149 239.4093  1.00272228 45831
GALAXY 18 (G-18)        
1 32951U 08024A   26193.18220506  .00000000  00000+0  00000+0 0  9997
2 32951   0.0294  51.4134 0002829  75.9042 105.3588  1.00270351 46103
GALAXY 19 (G-19)        
1 33376U 08045A   26193.11600198 -.00000136  00000+0  00000+0 0  9995
2 33376   0.0534 244.1892 0002331 236.5188 114.0599  1.00272135 65155
FM-5                    
1 35493U 09034A   26192.83302265 -.00000196  00000+0  00000+0 0  9994
2 35493   0.0375 275.4581 0000613  56.6820 171.3190  1.00271678 46891
INTELSAT 14 (IS-14)     
1 36097U 09064A   26193.12797934 -.00000271  00000+0  00000+0 0  9996
2 36097   0.0169  33.6639 0002225  82.5715 174.8739  1.00271051 60857
INTELSAT 15 (IS-15)     
1 36106U 09067A   26193.14558608 -.00000182  00000+0  00000+0 0  9996
2 36106   0.0153  59.8714 0002088  60.0676 307.6668  1.00271125 41475
DIRECTV 12              
1 36131U 09075A   26192.97227877 -.00000100  00000+0  00000+0 0  9994
2 36131   0.0086 141.5064 0000388  86.3158 309.3364  1.00271145 46808
INTELSAT 16 (IS-16)     
1 36397U 10006A   26193.12016199 -.00000242  00000+0  00000+0 0  9992
2 36397   0.0067  36.0520 0002278  99.8392 121.1815  1.00270866 59900
XM-5                    
1 37185U 10053A   26193.11244862 -.00000020  00000+0  00000+0 0  9993
2 37185   0.0643 265.8044 0001819 321.6356 347.8565  1.00271780 57739
INTELSAT 17 (IS-17)     
1 37238U 10065B   26193.18914286  .00000001  00000+0  00000+0 0  9994
2 37238   0.0204  92.0139 0002641  24.9881 307.1687  1.00272019 53495
INTELSAT 28 (IS-28)     
1 37392U 11016A   26193.18409979 -.00000224  00000+0  00000+0 0  9998
2 37392   1.8681  82.3117 0003673  38.8633 203.4608  1.00271704 53533
INTELSAT 18 (IS-18)     
1 37834U 11056A   26193.18169627  .00000056  00000+0  00000+0 0  9998
2 37834   0.0192 302.2276 0001714 185.8431  47.4232  1.00273001 54065
INTELSAT 22 (IS-22)     
1 38098U 12011A   26193.18914286  .00000000  00000+0  00000+0 0  9991
2 38098   0.0406  70.6732 0001939  62.7633 296.8296  1.00271219  7433
INTELSAT 19 (IS-19)     
1 38356U 12030A   26193.16813800 -.00000054  00000+0  00000+0 0  9997
2 38356   0.0140  44.2268 0003067  80.5473  31.8166  1.00271086 50703
INTELSAT 20 (IS-20)     
1 38740U 12043A   26193.18914286 -.00000022  00000+0  00000+0 0  9995
2 38740   0.0124  61.9506 0001132 108.1621 256.5584  1.00270629 50999
INTELSAT 21 (IS-21)     
1 38749U 12045A   26193.12376443 -.00000282  00000+0  00000+0 0  9995
2 38749   0.0038  98.7643 0001718  34.3630 143.4420  1.00270863 50771
